[{"OBJECT_NAME":"NUSAT-52","OBJECT_ID":"2025-276AC","EPOCH":"2026-03-09T18:06:03.254976","MEAN_MOTION":15.18602485,"ECCENTRICITY":0.0003268,"INCLINATION":97.4277,"RA_OF_ASC_NODE":144.0115,"ARG_OF_PERICENTER":28.4269,"MEAN_ANOMALY":331.7143,"EPHEMERIS_TYPE":0,"CLASSIFICATION_TYPE":"U","NORAD_CAT_ID":66692,"ELEMENT_SET_NO":999,"REV_AT_EPOCH":1532,"BSTAR":0.00037392998,"MEAN_MOTION_DOT":7.671e-5,"MEAN_MOTION_DDOT":0},{"OBJECT_NAME":"FLOCK 4H-33","OBJECT_ID":"2025-276BY","EPOCH":"2026-03-09T18:09:06.535296","MEAN_MOTION":15.19689011,"ECCENTRICITY":9.559e-5,"INCLINATION":97.4288,"RA_OF_ASC_NODE":144.1705,"ARG_OF_PERICENTER":288.4074,"MEAN_ANOMALY":71.7057,"EPHEMERIS_TYPE":0,"CLASSIFICATION_TYPE":"U","NORAD_CAT_ID":66736,"ELEMENT_SET_NO":999,"REV_AT_EPOCH":1533,"BSTAR":0.00040674179,"MEAN_MOTION_DOT":8.618e-5,"MEAN_MOTION_DDOT":0}]
